OBJECT_NAME,OBJECT_ID,EPOCH,MEAN_MOTION,ECCENTRICITY,INCLINATION,RA_OF_ASC_NODE,ARG_OF_PERICENTER,MEAN_ANOMALY,EPHEMERIS_TYPE,CLASSIFICATION_TYPE,NORAD_CAT_ID,ELEMENT_SET_NO,REV_AT_EPOCH,BSTAR,MEAN_MOTION_DOT,MEAN_MOTION_DDOT
STARLINK-37461,2026-111AB,2026-06-05T02:00:04.000032,15.80820229,.0001221,53.1581,212.1292,87.5323,85.5757,0,U,69173,999,360,.52945E-3,.104817E-2,0
STARLINK-37333,2026-111AC,2026-06-05T02:00:04.000032,15.77998262,.0001401,53.1588,212.1303,64.9952,107.6406,0,U,69174,999,360,.44668E-3,.77394E-3,0
STARLINK-37385,2026-111AD,2026-06-05T02:00:04.000032,15.80757829,.0000774,53.1581,212.1162,73.5127,105.8402,0,U,69175,999,360,.45979E-3,.90519E-3,0
STARLINK-37414,2026-111AE,2026-06-05T02:00:04.000032,15.80803479,.0000915,53.1583,212.1002,87.9936,99.0610,0,U,69176,999,360,.58861E-3,.116678E-2,0
STRIX-7,2026-112A,2026-06-05T03:06:19.373760,15.01365262,.0024403,44.9070,255.7768,339.4067,20.5819,0,U,69177,999,206,.38923E-3,.4893E-4,0
SHENZHOU-23 (SZ-23),2026-113A,2026-06-04T21:09:33.370272,15.60264942,.00095733,41.4694,36.8620,343.5452,16.5074,0,U,69180,999,29125,.28405096E-3,.23646E-3,0
STARLINK-37380,2026-114A,2026-06-05T02:00:04.000032,15.79419813,.000106,53.1588,262.9179,56.6754,77.4157,0,U,69182,999,286,-.96563E-2,-.1562987E-1,0
STARLINK-37089,2026-114B,2026-06-05T02:00:04.000032,15.79745866,.0000947,53.1588,262.9075,56.4079,82.6710,0,U,69183,999,286,-.11217E-1,-.1842456E-1,0
STARLINK-37428,2026-114C,2026-06-05T02:00:04.000032,15.80435650,.0000908,53.1589,262.8940,70.8869,74.9030,0,U,69184,999,286,-.10458E-1,-.1781933E-1,0
STARLINK-37237,2026-114D,2026-06-05T02:00:04.000032,15.82492134,.0001115,53.1584,262.8731,68.5311,87.1036,0,U,69185,999,286,-.10432E-1,-.1934727E-1,0
STARLINK-37365,2026-114E,2026-06-05T02:00:04.000032,15.81488674,.0001036,53.1586,262.8696,68.9132,88.3535,0,U,69186,999,286,-.11078E-1,-.1956013E-1,0
STARLINK-37209,2026-114F,2026-06-05T02:00:04.000032,15.81453783,.0001146,53.1588,262.8614,75.9158,85.4846,0,U,69187,999,286,-.10326E-1,-.1837381E-1,0
STARLINK-37359,2026-114G,2026-06-05T02:00:04.000032,15.81235609,.0001008,53.1588,262.8545,63.0577,101.6224,0,U,69188,999,286,-.10719E-1,-.1881368E-1,0
STARLINK-37440,2026-114H,2026-06-05T02:00:04.000032,15.89318064,.0000827,53.1572,262.5753,70.0044,229.1531,0,U,69189,999,286,-.53125E-2,-.1381278E-1,0
STARLINK-37282,2026-114J,2026-06-05T02:00:04.000032,15.80941651,.0000778,53.1587,262.8347,75.9230,98.1531,0,U,69190,999,286,-.47614E-3,-.93951E-3,0
STARLINK-37422,2026-114K,2026-06-05T02:00:04.000032,15.83359098,.0001046,53.1582,262.8207,85.5676,95.5172,0,U,69191,999,286,-.91911E-2,-.1795774E-1,0
STARLINK-37424,2026-114L,2026-06-05T02:00:04.000032,15.81026983,.0000982,53.1590,262.8264,64.1462,114.1532,0,U,69192,999,286,-.13119E-2,-.253954E-2,0
STARLINK-36666,2026-114M,2026-06-05T02:00:04.000032,15.81196361,.0000991,53.1589,262.8177,45.0507,137.4325,0,U,69193,999,286,-.25095E-2,-.47672E-2,0
STARLINK-37355,2026-114N,2026-06-05T02:00:04.000032,15.81382637,.0001033,53.1587,262.8093,69.0362,117.6095,0,U,69194,999,286,-.38914E-2,-.724485E-2,0
STARLINK-37166,2026-114P,2026-06-05T02:00:04.000032,15.81729200,.0001333,53.1589,262.7918,60.5458,134.4099,0,U,69195,999,286,-.61259E-2,-.1127689E-1,0
STARLINK-36933,2026-114Q,2026-06-05T02:00:04.000032,15.81546082,.0001198,53.1587,262.8006,78.0075,112.8070,0,U,69196,999,286,-.51307E-2,-.938593E-2,0
STARLINK-37419,2026-114R,2026-06-05T02:00:04.000032,15.81893079,.0001184,53.1589,262.7831,69.7920,129.2980,0,U,69197,999,286,-.68301E-2,-.1250913E-1,0
STARLINK-37321,2026-114S,2026-06-05T02:00:04.000032,15.82122267,.0001249,53.1588,262.7752,64.5832,138.5793,0,U,69198,999,286,-.78937E-2,-.1462647E-1,0
STARLINK-37406,2026-114T,2026-06-05T02:00:04.000032,15.82311362,.0000996,53.1587,262.7669,73.6472,133.6079,0,U,69199,999,286,-.87005E-2,-.1605519E-1,0
STARLINK-37761,2026-114U,2026-06-05T02:00:04.000032,15.82500178,.000134,53.1586,262.7581,86.2513,125.0574,0,U,69200,999,286,-.92015E-2,-.1698758E-1,0
STARLINK-37754,2026-114V,2026-06-05T02:00:04.000032,15.82420528,.0000957,53.1587,262.7470,56.6666,160.1733,0,U,69201,999,286,-.94225E-2,-.1764595E-1,0
STARLINK-37649,2026-114W,2026-06-05T02:00:04.000032,15.82749664,.0000905,53.1586,262.7417,71.3443,148.1394,0,U,69202,999,286,-.93921E-2,-.1783927E-1,0
