STARLINK-37461          
1 69173U 26111AB  26156.08337963  .00104817  00000+0  52945-3 0  9994
2 69173  53.1581 212.1292 0001221  87.5323  85.5757 15.80820229  3607
STARLINK-37333          
1 69174U 26111AC  26156.08337963  .00077394  00000+0  44668-3 0  9997
2 69174  53.1588 212.1303 0001401  64.9952 107.6406 15.77998262  3601
STARLINK-37385          
1 69175U 26111AD  26156.08337963  .00090519  00000+0  45979-3 0  9998
2 69175  53.1581 212.1162 0000774  73.5127 105.8402 15.80757829  3602
STARLINK-37414          
1 69176U 26111AE  26156.08337963  .00116678  00000+0  58861-3 0  9998
2 69176  53.1583 212.1002 0000915  87.9936  99.0610 15.80803479  3600
STRIX-7                 
1 69177U 26112A   26156.12939090  .00004893  00000+0  38923-3 0  9996
2 69177  44.9070 255.7768 0024403 339.4067  20.5819 15.01365262  2065
SHENZHOU-23 (SZ-23)     
1 69180U 26113A   26155.88163623  .00023646  00000+0  28405-3 0  9995
2 69180  41.4694  36.8620 0009573 343.5452  16.5074 15.60264942291250
STARLINK-37380          
1 69182U 26114A   26156.08337963 -.01562987  00000+0 -96563-2 0  9999
2 69182  53.1588 262.9179 0001060  56.6754  77.4157 15.79419813  2869
STARLINK-37089          
1 69183U 26114B   26156.08337963 -.01842456  00000+0 -11217-1 0  9994
2 69183  53.1588 262.9075 0000947  56.4079  82.6710 15.79745866  2869
STARLINK-37428          
1 69184U 26114C   26156.08337963 -.01781933  00000+0 -10458-1 0  9993
2 69184  53.1589 262.8940 0000908  70.8869  74.9030 15.80435650  2863
STARLINK-37237          
1 69185U 26114D   26156.08337963 -.01934727  00000+0 -10432-1 0  9997
2 69185  53.1584 262.8731 0001115  68.5311  87.1036 15.82492134  2868
STARLINK-37365          
1 69186U 26114E   26156.08337963 -.01956013  00000+0 -11078-1 0  9997
2 69186  53.1586 262.8696 0001036  68.9132  88.3535 15.81488674  2868
STARLINK-37209          
1 69187U 26114F   26156.08337963 -.01837381  00000+0 -10326-1 0  9999
2 69187  53.1588 262.8614 0001146  75.9158  85.4846 15.81453783  2865
STARLINK-37359          
1 69188U 26114G   26156.08337963 -.01881368  00000+0 -10719-1 0  9990
2 69188  53.1588 262.8545 0001008  63.0577 101.6224 15.81235609  2865
STARLINK-37440          
1 69189U 26114H   26156.08337963 -.01381278  00000+0 -53125-2 0  9995
2 69189  53.1572 262.5753 0000827  70.0044 229.1531 15.89318064  2864
STARLINK-37282          
1 69190U 26114J   26156.08337963 -.00093951  00000+0 -47614-3 0  9991
2 69190  53.1587 262.8347 0000778  75.9230  98.1531 15.80941651  2869
STARLINK-37422          
1 69191U 26114K   26156.08337963 -.01795774  00000+0 -91911-2 0  9993
2 69191  53.1582 262.8207 0001046  85.5676  95.5172 15.83359098  2863
STARLINK-37424          
1 69192U 26114L   26156.08337963 -.00253954  00000+0 -13119-2 0  9996
2 69192  53.1590 262.8264 0000982  64.1462 114.1532 15.81026983  2860
STARLINK-36666          
1 69193U 26114M   26156.08337963 -.00476720  00000+0 -25095-2 0  9991
2 69193  53.1589 262.8177 0000991  45.0507 137.4325 15.81196361  2866
STARLINK-37355          
1 69194U 26114N   26156.08337963 -.00724485  00000+0 -38914-2 0  9990
2 69194  53.1587 262.8093 0001033  69.0362 117.6095 15.81382637  2862
STARLINK-37166          
1 69195U 26114P   26156.08337963 -.01127689  00000+0 -61259-2 0  9993
2 69195  53.1589 262.7918 0001333  60.5458 134.4099 15.81729200  2867
STARLINK-36933          
1 69196U 26114Q   26156.08337963 -.00938593  00000+0 -51307-2 0  9990
2 69196  53.1587 262.8006 0001198  78.0075 112.8070 15.81546082  2867
STARLINK-37419          
1 69197U 26114R   26156.08337963 -.01250913  00000+0 -68301-2 0  9997
2 69197  53.1589 262.7831 0001184  69.7920 129.2980 15.81893079  2869
STARLINK-37321          
1 69198U 26114S   26156.08337963 -.01462647  00000+0 -78937-2 0  9993
2 69198  53.1588 262.7752 0001249  64.5832 138.5793 15.82122267  2868
STARLINK-37406          
1 69199U 26114T   26156.08337963 -.01605519  00000+0 -87005-2 0  9997
2 69199  53.1587 262.7669 0000996  73.6472 133.6079 15.82311362  2863
STARLINK-37761          
1 69200U 26114U   26156.08337963 -.01698758  00000+0 -92015-2 0  9994
2 69200  53.1586 262.7581 0001340  86.2513 125.0574 15.82500178  2868
STARLINK-37754          
1 69201U 26114V   26156.08337963 -.01764595  00000+0 -94225-2 0  9993
2 69201  53.1587 262.7470 0000957  56.6666 160.1733 15.82420528  2867
STARLINK-37649          
1 69202U 26114W   26156.08337963 -.01783927  00000+0 -93921-2 0  9996
2 69202  53.1586 262.7417 0000905  71.3443 148.1394 15.82749664  2862
